{
  "type": "FeatureCollection",
  "features": [
    {
      "type": "Feature",
      "properties": {
        "norad_id": 34971,
        "name": "COSMOS 2251 DEB",
        "group": "cosmos-2251-debris",
        "lat": 33.155878609125764,
        "lon": 99.59229894691015,
        "alt_km": 656.5129960895265,
        "timestamp": "2025-12-09T21:34:11.805197+00:00",
        "meta_object_name": "COSMOS 2251 DEB",
        "meta_object_id": "1993-036AFA",
        "meta_epoch": "2025-12-09T13:13:36.252192",
        "meta_mean_motion": 14.55626239,
        "meta_eccentricity": 0.00697506,
        "meta_inclination": 73.9783,
        "meta_ra_of_asc_node": 291.0727,
        "meta_arg_of_pericenter": 157.5993,
        "meta_mean_anomaly": 326.8398,
        "meta_ephemeris_type": 0,
        "meta_classification_type": "U",
        "meta_norad_cat_id": 34971,
        "meta_element_set_no": 999,
        "meta_rev_at_epoch": 66126,
        "meta_bstar": 0.00030019719,
        "meta_mean_motion_dot": 1.323e-05,
        "meta_mean_motion_ddot": 0,
        "tle_line1": "1 34971U 93036AFA 25343.55111403  .00001323  00000+0  30020-3 0  9998",
        "tle_line2": "2 34971  73.9783 291.0727 0069750 157.5993 326.8398 14.55626239661260"
      },
      "geometry": {
        "type": "Point",
        "coordinates": [
          99.59229894691015,
          33.155878609125764
        ]
      }
    },
    {
      "type": "Feature",
      "properties": {
        "norad_id": 34972,
        "name": "COSMOS 2251 DEB",
        "group": "cosmos-2251-debris",
        "lat": -37.61228374833398,
        "lon": -111.81051553841417,
        "alt_km": 634.3430179287907,
        "timestamp": "2025-12-09T21:34:11.805208+00:00",
        "meta_object_name": "COSMOS 2251 DEB",
        "meta_object_id": "1993-036AFB",
        "meta_epoch": "2025-12-09T04:23:50.530272",
        "meta_mean_motion": 14.72780189,
        "meta_eccentricity": 0.00340554,
        "meta_inclination": 73.9883,
        "meta_ra_of_asc_node": 56.8045,
        "meta_arg_of_pericenter": 216.3223,
        "meta_mean_anomaly": 170.8058,
        "meta_ephemeris_type": 0,
        "meta_classification_type": "U",
        "meta_norad_cat_id": 34972,
        "meta_element_set_no": 999,
        "meta_rev_at_epoch": 87598,
        "meta_bstar": 0.0017524767,
        "meta_mean_motion_dot": 0.00011289,
        "meta_mean_motion_ddot": 0,
        "tle_line1": "1 34972U 93036AFB 25343.18322373  .00011289  00000+0  17525-2 0  9994",
        "tle_line2": "2 34972  73.9883  56.8045 0034055 216.3223 170.8058 14.72780189875982"
      },
      "geometry": {
        "type": "Point",
        "coordinates": [
          -111.81051553841417,
          -37.61228374833398
        ]
      }
    },
    {
      "type": "Feature",
      "properties": {
        "norad_id": 34976,
        "name": "COSMOS 2251 DEB",
        "group": "cosmos-2251-debris",
        "lat": -73.32967945255552,
        "lon": -120.85280308031115,
        "alt_km": 643.9307307411764,
        "timestamp": "2025-12-09T21:34:11.805218+00:00",
        "meta_object_name": "COSMOS 2251 DEB",
        "meta_object_id": "1993-036AFF",
        "meta_epoch": "2025-12-09T05:58:00.476832",
        "meta_mean_motion": 14.76440196,
        "meta_eccentricity": 0.0047869,
        "meta_inclination": 74.0581,
        "meta_ra_of_asc_node": 313.0779,
        "meta_arg_of_pericenter": 0.575,
        "meta_mean_anomaly": 60.7411,
        "meta_ephemeris_type": 0,
        "meta_classification_type": "U",
        "meta_norad_cat_id": 34976,
        "meta_element_set_no": 999,
        "meta_rev_at_epoch": 88222,
        "meta_bstar": 0.0021062,
        "meta_mean_motion_dot": 0.0001493,
        "meta_mean_motion_ddot": 0,
        "tle_line1": "1 34976U 93036AFF 25343.24861663  .00014930  00000+0  21062-2 0  9992",
        "tle_line2": "2 34976  74.0581 313.0779 0047869   0.5750  60.7411 14.76440196882220"
      },
      "geometry": {
        "type": "Point",
        "coordinates": [
          -120.85280308031115,
          -73.32967945255552
        ]
      }
    },
    {
      "type": "Feature",
      "properties": {
        "norad_id": 34979,
        "name": "COSMOS 2251 DEB",
        "group": "cosmos-2251-debris",
        "lat": -60.764292597309364,
        "lon": -117.89881378967024,
        "alt_km": 619.3406140940224,
        "timestamp": "2025-12-09T21:34:11.805229+00:00",
        "meta_object_name": "COSMOS 2251 DEB",
        "meta_object_id": "1993-036AFJ",
        "meta_epoch": "2025-12-09T05:37:49.577376",
        "meta_mean_motion": 14.7923844,
        "meta_eccentricity": 0.0049119,
        "meta_inclination": 74.04,
        "meta_ra_of_asc_node": 274.1584,
        "meta_arg_of_pericenter": 352.832,
        "meta_mean_anomaly": 7.2147,
        "meta_ephemeris_type": 0,
        "meta_classification_type": "U",
        "meta_norad_cat_id": 34979,
        "meta_element_set_no": 999,
        "meta_rev_at_epoch": 88168,
        "meta_bstar": 0.0019435,
        "meta_mean_motion_dot": 0.00014735,
        "meta_mean_motion_ddot": 0,
        "tle_line1": "1 34979U 93036AFJ 25343.23460159  .00014735  00000+0  19435-2 0  9993",
        "tle_line2": "2 34979  74.0400 274.1584 0049119 352.8320   7.2147 14.79238440881681"
      },
      "geometry": {
        "type": "Point",
        "coordinates": [
          -117.89881378967024,
          -60.764292597309364
        ]
      }
    },
    {
      "type": "Feature",
      "properties": {
        "norad_id": 34990,
        "name": "COSMOS 2251 DEB",
        "group": "cosmos-2251-debris",
        "lat": 53.714369129030516,
        "lon": -80.46492840570235,
        "alt_km": 746.8834442026073,
        "timestamp": "2025-12-09T21:34:11.805239+00:00",
        "meta_object_name": "COSMOS 2251 DEB",
        "meta_object_id": "1993-036AFN",
        "meta_epoch": "2025-12-07T01:03:28.213920",
        "meta_mean_motion": 14.42350123,
        "meta_eccentricity": 0.00162731,
        "meta_inclination": 74.0455,
        "meta_ra_of_asc_node": 261.8923,
        "meta_arg_of_pericenter": 325.0179,
        "meta_mean_anomaly": 34.9906,
        "meta_ephemeris_type": 0,
        "meta_classification_type": "U",
        "meta_norad_cat_id": 34990,
        "meta_element_set_no": 999,
        "meta_rev_at_epoch": 87264,
        "meta_bstar": 0.00072596004,
        "meta_mean_motion_dot": 2.377e-05,
        "meta_mean_motion_ddot": 0,
        "tle_line1": "1 34990U 93036AFN 25341.04407655  .00002377  00000+0  72596-3 0  9992",
        "tle_line2": "2 34990  74.0455 261.8923 0016273 325.0179  34.9906 14.42350123872642"
      },
      "geometry": {
        "type": "Point",
        "coordinates": [
          -80.46492840570235,
          53.714369129030516
        ]
      }
    },
    {
      "type": "Feature",
      "properties": {
        "norad_id": 34997,
        "name": "COSMOS 2251 DEB",
        "group": "cosmos-2251-debris",
        "lat": -8.690888014866747,
        "lon": 139.07949394455454,
        "alt_km": 759.181695028713,
        "timestamp": "2025-12-09T21:34:11.805249+00:00",
        "meta_object_name": "COSMOS 2251 DEB",
        "meta_object_id": "1993-036AFV",
        "meta_epoch": "2025-12-08T16:27:06.896736",
        "meta_mean_motion": 14.45475054,
        "meta_eccentricity": 0.00980572,
        "meta_inclination": 73.881,
        "meta_ra_of_asc_node": 318.8286,
        "meta_arg_of_pericenter": 294.5329,
        "meta_mean_anomaly": 64.5629,
        "meta_ephemeris_type": 0,
        "meta_classification_type": "U",
        "meta_norad_cat_id": 34997,
        "meta_element_set_no": 999,
        "meta_rev_at_epoch": 70688,
        "meta_bstar": 0.0029567022,
        "meta_mean_motion_dot": 0.00011043,
        "meta_mean_motion_ddot": 0,
        "tle_line1": "1 34997U 93036AFV 25342.68549649  .00011043  00000+0  29567-2 0  9999",
        "tle_line2": "2 34997  73.8810 318.8286 0098057 294.5329  64.5629 14.45475054706880"
      },
      "geometry": {
        "type": "Point",
        "coordinates": [
          139.07949394455454,
          -8.690888014866747
        ]
      }
    },
    {
      "type": "Feature",
      "properties": {
        "norad_id": 34998,
        "name": "COSMOS 2251 DEB",
        "group": "cosmos-2251-debris",
        "lat": 29.86872859953921,
        "lon": 174.79987857604573,
        "alt_km": 723.6358924089936,
        "timestamp": "2025-12-09T21:34:11.805259+00:00",
        "meta_object_name": "COSMOS 2251 DEB",
        "meta_object_id": "1993-036AFW",
        "meta_epoch": "2025-12-09T11:37:03.426816",
        "meta_mean_motion": 14.4925952,
        "meta_eccentricity": 0.00210124,
        "meta_inclination": 74.0095,
        "meta_ra_of_asc_node": 166.0998,
        "meta_arg_of_pericenter": 311.9127,
        "meta_mean_anomaly": 76.4992,
        "meta_ephemeris_type": 0,
        "meta_classification_type": "U",
        "meta_norad_cat_id": 34998,
        "meta_element_set_no": 999,
        "meta_rev_at_epoch": 87373,
        "meta_bstar": 0.00089460042,
        "meta_mean_motion_dot": 3.394e-05,
        "meta_mean_motion_ddot": 0,
        "tle_line1": "1 34998U 93036AFW 25343.48406744  .00003394  00000+0  89460-3 0  9996",
        "tle_line2": "2 34998  74.0095 166.0998 0021012 311.9127  76.4992 14.49259520873735"
      },
      "geometry": {
        "type": "Point",
        "coordinates": [
          174.79987857604573,
          29.86872859953921
        ]
      }
    }
  ]
}